[{"OBJECT_NAME":"STARLINK-5671","OBJECT_ID":"2023-013J","EPOCH":"2026-03-08T00:05:56.981472","MEAN_MOTION":15.02536737,"ECCENTRICITY":0.0001158,"INCLINATION":43.0043,"RA_OF_ASC_NODE":309.684,"ARG_OF_PERICENTER":266.2254,"MEAN_ANOMALY":93.8456,"EPHEMERIS_TYPE":0,"CLASSIFICATION_TYPE":"U","NORAD_CAT_ID":55339,"ELEMENT_SET_NO":999,"REV_AT_EPOCH":17145,"BSTAR":3.9786178e-5,"MEAN_MOTION_DOT":3.34e-6,"MEAN_MOTION_DDOT":0},{"OBJECT_NAME":"ELECTRON KICK STAGE R\/B","OBJECT_ID":"2025-169B","EPOCH":"2026-03-08T18:46:24.954528","MEAN_MOTION":15.00375909,"ECCENTRICITY":0.00087281,"INCLINATION":42.0099,"RA_OF_ASC_NODE":207.6084,"ARG_OF_PERICENTER":269.0782,"MEAN_ANOMALY":90.9044,"EPHEMERIS_TYPE":0,"CLASSIFICATION_TYPE":"U","NORAD_CAT_ID":65117,"ELEMENT_SET_NO":999,"REV_AT_EPOCH":3234,"BSTAR":0.00071792459,"MEAN_MOTION_DOT":8.999e-5,"MEAN_MOTION_DDOT":0}]
